[{"OBJECT_NAME":"MONITOR-4 (RS57S)","OBJECT_ID":"2023-091S","EPOCH":"2026-03-09T23:02:36.101184","MEAN_MOTION":15.25833519,"ECCENTRICITY":0.00137053,"INCLINATION":97.5193,"RA_OF_ASC_NODE":131.7407,"ARG_OF_PERICENTER":91.587,"MEAN_ANOMALY":268.6938,"EPHEMERIS_TYPE":0,"CLASSIFICATION_TYPE":"U","NORAD_CAT_ID":57182,"ELEMENT_SET_NO":999,"REV_AT_EPOCH":14915,"BSTAR":0.00052093098,"MEAN_MOTION_DOT":0.000133,"MEAN_MOTION_DDOT":0},{"OBJECT_NAME":"STARLINK-35474","OBJECT_ID":"2025-259R","EPOCH":"2026-03-09T14:03:22.642272","MEAN_MOTION":15.27586274,"ECCENTRICITY":0.0001422,"INCLINATION":42.9986,"RA_OF_ASC_NODE":275.0808,"ARG_OF_PERICENTER":254.6465,"MEAN_ANOMALY":105.423,"EPHEMERIS_TYPE":0,"CLASSIFICATION_TYPE":"U","NORAD_CAT_ID":66437,"ELEMENT_SET_NO":999,"REV_AT_EPOCH":1947,"BSTAR":0.00094844,"MEAN_MOTION_DOT":0.00025934,"MEAN_MOTION_DDOT":0}]
